{
  "norad_id": 58542,
  "name": "STARLINK-31030",
  "history": [
    {
      "epoch": "2026-03-28T23:01:04.289088Z",
      "apogee_km": 476.0006885232742,
      "perigee_km": 474.4970556629369,
      "latitude_deg": -9.641997151125464e-06,
      "longitude_deg": 161.73267582536167,
      "height_km": 476.19821618642834,
      "semi_major_axis_km": 6853.385872093105,
      "eccentricity": 0.0001097,
      "inclination_deg": 53.1582,
      "raan_deg": 333.3726,
      "arg_perigee_deg": 93.9071,
      "mean_anomaly_deg": 266.2055,
      "mean_motion_rev_day": 15.30188679
    },
    {
      "epoch": "2026-03-28T23:01:04.289952Z",
      "apogee_km": 476.00041140165285,
      "perigee_km": 474.4973268128415,
      "latitude_deg": -5.9731068764626845e-06,
      "longitude_deg": 161.73267494917488,
      "height_km": 476.19819452387543,
      "semi_major_axis_km": 6853.385869107247,
      "eccentricity": 0.00010966,
      "inclination_deg": 53.1582,
      "raan_deg": 333.3726,
      "arg_perigee_deg": 93.9071,
      "mean_anomaly_deg": 266.2055,
      "mean_motion_rev_day": 15.3018868
    },
    {
      "epoch": "2026-03-29T22:31:52.343328Z",
      "apogee_km": 476.1199516970837,
      "perigee_km": 474.3251938921594,
      "latitude_deg": 6.491447607067311e-05,
      "longitude_deg": 163.5178469298992,
      "height_km": 476.199757552081,
      "semi_major_axis_km": 6853.359572794621,
      "eccentricity": 0.00013094,
      "inclination_deg": 53.1595,
      "raan_deg": 328.8236,
      "arg_perigee_deg": 95.0648,
      "mean_anomaly_deg": 265.0503,
      "mean_motion_rev_day": 15.30197487
    },
    {
      "epoch": "2026-03-30T22:02:40.709472Z",
      "apogee_km": 475.96015569344127,
      "perigee_km": 474.5131343820276,
      "latitude_deg": 1.3838279832151747e-06,
      "longitude_deg": 165.3019126249376,
      "height_km": 475.9841196565324,
      "semi_major_axis_km": 6853.373645037734,
      "eccentricity": 0.00010557,
      "inclination_deg": 53.1591,
      "raan_deg": 324.2749,
      "arg_perigee_deg": 77.9677,
      "mean_anomaly_deg": 282.1442,
      "mean_motion_rev_day": 15.30192774
    },
    {
      "epoch": "2026-03-31T21:33:28.576224Z",
      "apogee_km": 476.06893136635426,
      "perigee_km": 474.36929904978297,
      "latitude_deg": 5.030971262530296e-06,
      "longitude_deg": 167.0857151306111,
      "height_km": 475.98086038889494,
      "semi_major_axis_km": 6853.356115208068,
      "eccentricity": 0.000124,
      "inclination_deg": 53.1602,
      "raan_deg": 319.7238,
      "arg_perigee_deg": 80.7627,
      "mean_anomaly_deg": 279.3514,
      "mean_motion_rev_day": 15.30198645
    },
    {
      "epoch": "2026-04-01T21:04:16.380768Z",
      "apogee_km": 476.10449714706556,
      "perigee_km": 474.34181291519053,
      "latitude_deg": 7.515233538731113e-06,
      "longitude_deg": 168.8692765497161,
      "height_km": 476.0111590611267,
      "semi_major_axis_km": 6853.360155031128,
      "eccentricity": 0.0001286,
      "inclination_deg": 53.1605,
      "raan_deg": 315.1722,
      "arg_perigee_deg": 82.8226,
      "mean_anomaly_deg": 277.2921,
      "mean_motion_rev_day": 15.30197292
    },
    {
      "epoch": "2026-04-02T08:02:38.961024Z",
      "apogee_km": 476.10204262571824,
      "perigee_km": 474.36964703800186,
      "latitude_deg": -4.1961492310188974e-05,
      "longitude_deg": 1.698513081209453,
      "height_km": 476.14989897038345,
      "semi_major_axis_km": 6853.37284483186,
      "eccentricity": 0.00012639,
      "inclination_deg": 53.1594,
      "raan_deg": 313.0462,
      "arg_perigee_deg": 91.0605,
      "mean_anomaly_deg": 269.054,
      "mean_motion_rev_day": 15.30193042
    },
    {
      "epoch": "2026-04-02T22:09:07.193952Z",
      "apogee_km": 476.05497999117597,
      "perigee_km": 474.369193182858,
      "latitude_deg": -5.135392847837774e-05,
      "longitude_deg": 146.77068079032827,
      "height_km": 476.1201766957993,
      "semi_major_axis_km": 6853.349086587017,
      "eccentricity": 0.00012299,
      "inclination_deg": 53.1591,
      "raan_deg": 310.3154,
      "arg_perigee_deg": 90.6831,
      "mean_anomaly_deg": 269.431,
      "mean_motion_rev_day": 15.30200999
    },
    {
      "epoch": "2026-04-03T18:31:49.915200Z",
      "apogee_km": 476.34452759154556,
      "perigee_km": 474.2651933310826,
      "latitude_deg": -2.517151568176232e-05,
      "longitude_deg": -163.69042154571204,
      "height_km": 476.43197961593586,
      "semi_major_axis_km": 6853.441860461314,
      "eccentricity": 0.0001517,
      "inclination_deg": 53.1595,
      "raan_deg": 306.3692,
      "arg_perigee_deg": 102.7471,
      "mean_anomaly_deg": 257.3699,
      "mean_motion_rev_day": 15.30169928
    },
    {
      "epoch": "2026-04-04T19:36:40.247136Z",
      "apogee_km": 475.9400266120365,
      "perigee_km": 474.5350848281141,
      "latitude_deg": -2.699243673200277e-05,
      "longitude_deg": 174.21733430134466,
      "height_km": 476.4894670543017,
      "semi_major_axis_km": 6853.3745557200755,
      "eccentricity": 0.0001025,
      "inclination_deg": 53.1604,
      "raan_deg": 301.5167,
      "arg_perigee_deg": 120.193,
      "mean_anomaly_deg": 239.9172,
      "mean_motion_rev_day": 15.30192469
    },
    {
      "epoch": "2026-04-05T06:35:02.880960Z",
      "apogee_km": 475.89556169442494,
      "perigee_km": 474.5865664841831,
      "latitude_deg": 2.3617369597844853e-05,
      "longitude_deg": 7.050320540739854,
      "height_km": 476.1999153525962,
      "semi_major_axis_km": 6853.378064089304,
      "eccentricity": 9.55e-05,
      "inclination_deg": 53.1604,
      "raan_deg": 299.3946,
      "arg_perigee_deg": 95.2872,
      "mean_anomaly_deg": 264.8238,
      "mean_motion_rev_day": 15.30191294
    },
    {
      "epoch": "2026-04-05T20:41:31.618464Z",
      "apogee_km": 475.911937000943,
      "perigee_km": 474.5440053526954,
      "latitude_deg": 8.591473651964692e-06,
      "longitude_deg": 152.12077443414157,
      "height_km": 476.1661931352263,
      "semi_major_axis_km": 6853.3649711768185,
      "eccentricity": 9.98e-05,
      "inclination_deg": 53.1597,
      "raan_deg": 296.6642,
      "arg_perigee_deg": 93.337,
      "mean_anomaly_deg": 266.7745,
      "mean_motion_rev_day": 15.30195679
    },
    {
      "epoch": "2026-04-05T23:49:37.856928Z",
      "apogee_km": 475.9790867161355,
      "perigee_km": 474.4424290818588,
      "latitude_deg": -8.363858006551402e-06,
      "longitude_deg": 104.35881537212998,
      "height_km": 476.1374052070398,
      "semi_major_axis_km": 6853.347757898997,
      "eccentricity": 0.00011211,
      "inclination_deg": 53.1596,
      "raan_deg": 296.057,
      "arg_perigee_deg": 92.1191,
      "mean_anomaly_deg": 267.9938,
      "mean_motion_rev_day": 15.30201444
    },
    {
      "epoch": "2026-04-07T13:26:52.800576Z",
      "apogee_km": 475.6070503937508,
      "perigee_km": 474.6630806994426,
      "latitude_deg": 4.1341234719748496e-05,
      "longitude_deg": -108.78044900964026,
      "height_km": 476.05908488568997,
      "semi_major_axis_km": 6853.272065546596,
      "eccentricity": 6.887e-05,
      "inclination_deg": 53.1558,
      "raan_deg": 288.775,
      "arg_perigee_deg": 93.1112,
      "mean_anomaly_deg": 266.9968,
      "mean_motion_rev_day": 15.30226795
    },
    {
      "epoch": "2026-04-07T18:09:03.957984Z",
      "apogee_km": 475.8556714183442,
      "perigee_km": 474.64536318278897,
      "latitude_deg": -3.795592909715104e-05,
      "longitude_deg": 179.57105270667483,
      "height_km": 476.0183928108597,
      "semi_major_axis_km": 6853.387517300566,
      "eccentricity": 8.83e-05,
      "inclination_deg": 53.1595,
      "raan_deg": 287.8662,
      "arg_perigee_deg": 77.5274,
      "mean_anomaly_deg": 282.5825,
      "mean_motion_rev_day": 15.30188128
    },
    {
      "epoch": "2026-04-08T12:57:42.333120Z",
      "apogee_km": 475.67387041487746,
      "perigee_km": 474.82857351158054,
      "latitude_deg": 2.2809425228329807e-05,
      "longitude_deg": -107.00232714763781,
      "height_km": 475.99985052361683,
      "semi_major_axis_km": 6853.388221963229,
      "eccentricity": 6.167e-05,
      "inclination_deg": 53.1591,
      "raan_deg": 284.2252,
      "arg_perigee_deg": 69.1743,
      "mean_anomaly_deg": 290.9324,
      "mean_motion_rev_day": 15.30187892
    },
    {
      "epoch": "2026-04-08T19:13:53.907168Z",
      "apogee_km": 475.6979467372994,
      "perigee_km": 474.6410298106766,
      "latitude_deg": -4.944868489888441e-05,
      "longitude_deg": 157.47969811712548,
      "height_km": 476.01520553280847,
      "semi_major_axis_km": 6853.306488273987,
      "eccentricity": 7.711e-05,
      "inclination_deg": 53.1587,
      "raan_deg": 283.013,
      "arg_perigee_deg": 84.2545,
      "mean_anomaly_deg": 275.8543,
      "mean_motion_rev_day": 15.30215266
    }
  ]
}